     2.100          NAVIGATION                              RINEX VERSION / TYPE
fic2rin                                 11/03/2008 03:42:53 PGM / RUN BY / DATE
                                                            END OF HEADER
11 08 11  2  1 59 44.0  .165561214089D-04 -.795807864051D-12  .000000000000D+00
     .110000000000D+02  .500000000000D+01  .608275337109D-08 -.167458909178D+01
     .800937414169D-07  .879913545214D-02  .818260014057D-05  .515365186691D+04
     .718400000000D+04  .949949026108D-07  .303971969209D+01 -.147148966789D-06
     .890776624788D+00  .181062500000D+03  .637133989337D+00 -.853821279369D-08
    -.297512392585D-09  .100000000000D+01  .150400000000D+04  .000000000000D+00
     .240000000000D+01  .000000000000D+00 -.121071934700D-07  .110000000000D+02
     .600000000000D+01  .400000000000D+01
 1 08 11  2  2  0  0.0 -.365567393601D-04 -.434283720097D-10  .000000000000D+00
     .152000000000D+03 -.887500000000D+01  .525629037416D-08 -.241677193097D+01
    -.456348061562D-06  .980969914235D-02  .545009970665D-05  .515379004097D+04
     .720000000000D+04  .137835741043D-06  .212508581682D+01  .670552253723D-07
     .935061829261D+00  .255250000000D+03 -.150615897382D+01 -.811498087867D-08
     .464305054455D-11  .100000000000D+01  .150400000000D+04  .000000000000D+00
     .340000000000D+01  .630000000000D+02 -.232830643654D-08  .152000000000D+03
     .600000000000D+01  .400000000000D+01
 2 08 11  2  2  0  0.0  .176012981683D-03 -.261479726760D-11  .000000000000D+00
     .700000000000D+02  .294375000000D+02  .487806033365D-08  .244899632824D+00
     .150129199028D-05  .878013879992D-02  .935979187489D-05  .515357638550D+04
     .720000000000D+04  .949949026108D-07 -.305389612022D+01 -.651925802231D-07
     .942888489262D+00  .191281250000D+03  .266904795809D+01 -.814176770873D-08
    -.314655963827D-09  .100000000000D+01  .150400000000D+04  .000000000000D+00
     .240000000000D+01  .000000000000D+00 -.172294676304D-07  .700000000000D+02
     .600000000000D+01  .400000000000D+01
 3 08 11  2  2  0  0.0  .305330380797D-03  .534328137292D-11  .000000000000D+00
     .510000000000D+02 -.812500000000D+01  .566309303341D-08 -.532593247504D-01
    -.331550836563D-06  .114130583825D-01  .560283660889D-05  .515370032310D+04
     .720000000000D+04  .186264514923D-07  .208413745534D+01  .175088644028D-06
     .925785294559D+00  .253718750000D+03  .870798974535D+00 -.864250285208D-08
     .128576784311D-10  .100000000000D+01  .150400000000D+04  .000000000000D+00
     .240000000000D+01  .000000000000D+00 -.419095158577D-08  .510000000000D+02
     .600000000000D+01  .400000000000D+01
 4 08 11  2  2  0  0.0 -.219120178372D-03 -.119371179608D-10  .000000000000D+00
     .880000000000D+02  .348750000000D+02  .478412784956D-08  .312250814262D+01
     .181980431080D-05  .845923658926D-02  .997446477413D-05  .515361630630D+04
     .720000000000D+04 -.106170773506D-06 -.303526684888D+01 -.558793544769D-07
     .942155949126D+00  .178656250000D+03  .422158328269D+00 -.786139888739D-08
    -.306798493674D-09  .100000000000D+01  .150400000000D+04  .000000000000D+00
     .340000000000D+01  .000000000000D+00 -.605359673500D-08  .880000000000D+02
     .600000000000D+01  .400000000000D+01
 5 08 11  2  2  0  0.0 -.356513541192D-03 -.369482222595D-10  .000000000000D+00
     .500000000000D+02 -.220000000000D+02  .470019578202D-08  .269037257554D+01
    -.111944973469D-05  .935492594726D-02  .856444239616D-05  .515367213440D+04
     .720000000000D+04  .558793544769D-07  .105195278153D+01 -.391155481339D-07
     .943806686868D+00  .201312500000D+03  .129063715423D+01 -.784568394709D-08
     .462519265784D-09  .100000000000D+01  .150400000000D+04  .000000000000D+00
     .965000000000D+01  .000000000000D+00 -.419095158577D-08  .500000000000D+02
     .600000000000D+01  .400000000000D+01
 6 08 11  2  2  0  0.0  .150562729686D-03 -.591171556152D-11  .000000000000D+00
     .104000000000D+03 -.116562500000D+02  .537700968832D-08  .252472026105D+01
    -.637024641037D-06  .561323796865D-02  .554323196411D-05  .515370663834D+04
     .720000000000D+04  .856816768646D-07  .215005709698D+01 -.298023223877D-07
     .933366446185D+00  .256437500000D+03 -.153994790638D+01 -.822141388346D-08
    -.696457581682D-10  .100000000000D+01  .150400000000D+04  .000000000000D+00
     .340000000000D+01  .000000000000D+00 -.465661287308D-08  .104000000000D+03
     .600000000000D+01  .400000000000D+01
 7 08 11  2  2  0  0.0  .228467397392D-04  .341060513165D-12  .000000000000D+00
     .410000000000D+02 -.959687500000D+02  .416517349619D-08 -.144062778228D+01
    -.507198274136D-05  .231113389600D-02  .780448317528D-05  .515369310188D+04
     .720000000000D+04 -.577419996262D-07  .987418676923D-01 -.186264514923D-07
     .964903510413D+00  .232125000000D+03  .281660253350D+01 -.782711174491D-08
     .857178562071D-11  .100000000000D+01  .150400000000D+04  .000000000000D+00
     .240000000000D+01  .000000000000D+00 -.107102096081D-07  .410000000000D+02
     .600000000000D+01  .400000000000D+01
 8 08 11  2  2  0  0.0 -.176406931132D-03 -.147792889038D-11  .000000000000D+00
     .630000000000D+02 -.878750000000D+02  .368658213237D-08 -.216181300572D+01
    -.465661287308D-05  .106312198332D-01  .864453613758D-05  .515371791077D+04
     .720000000000D+04 -.186264514923D-06  .154792931678D+00 -.117346644402D-06
     .986074853541D+00  .227500000000D+03  .293440783882D+01 -.757888711964D-08
     .560737642688D-10  .100000000000D+01  .150400000000D+04  .000000000000D+00
     .340000000000D+01  .000000000000D+00 -.372529029846D-08  .630000000000D+02
     .600000000000D+01  .400000000000D+01
 9 08 11  2  2  0  0.0  .227969139814D-04  .181898940355D-11  .000000000000D+00
     .790000000000D+02 -.111750000000D+03  .383123101472D-08 -.248107995037D+01
    -.558979809284D-05  .200868608663D-01  .784173607826D-05  .515366833115D+04
     .720000000000D+04  .225380063057D-06  .632497254392D-01  .689178705215D-07
     .973905113069D+00  .229937500000D+03  .144900211200D+01 -.742138055886D-08
     .185722021782D-10  .100000000000D+01  .150400000000D+04  .000000000000D+00
     .240000000000D+01  .000000000000D+00 -.558793544769D-08  .790000000000D+02
     .600000000000D+01  .400000000000D+01
10 08 11  2  2  0  0.0 -.675581395626D-05 -.454747350886D-12  .000000000000D+00
     .850000000000D+02  .106156250000D+03  .455161816459D-08  .121483997750D+01
     .574253499508D-05  .813808210660D-02  .549480319023D-05  .515373213196D+04
     .720000000000D+04 -.279396772385D-07 -.197093892586D+01  .109896063805D-06
     .961219215599D+00  .274031250000D+03  .557814547672D+00 -.819748431527D-08
     .182150444440D-10  .100000000000D+01  .150400000000D+04  .000000000000D+00
     .340000000000D+01  .000000000000D+00 -.232830643654D-08  .850000000000D+02
     .600000000000D+01  .400000000000D+01
12 08 11  2  2  0  0.0 -.343129504472D-03  .216004991671D-11  .000000000000D+00
     .610000000000D+02 -.125000000000D+02  .434982404477D-08 -.127070360803D+01
    -.584870576859D-06  .297683163080D-02  .850670039654D-05  .515379244232D+04
     .720000000000D+04 -.763684511185D-07  .114900631449D+01  .428408384323D-07
     .964820719490D+00  .217031250000D+03 -.847903689243D+00 -.784389815841D-08
     .516807241382D-09  .100000000000D+01  .150400000000D+04  .000000000000D+00
     .240000000000D+01  .000000000000D+00 -.116415321827D-07  .610000000000D+02
     .600000000000D+01  .400000000000D+01
13 08 11  2  2  0  0.0  .275777652860D-03  .102318153949D-11  .000000000000D+00
     .120000000000D+02 -.228125000000D+02  .388980488313D-08  .907851100945D+00
    -.131502747536D-05  .361788424198D-02  .228919088840D-05  .515355737877D+04
     .720000000000D+04 -.707805156708D-07 -.896624528628D+00  .931322574615D-08
     .995335941291D+00  .352468750000D+03  .155152610862D+01 -.797926093967D-08
    -.139648674071D-09  .100000000000D+01  .150400000000D+04  .000000000000D+00
     .240000000000D+01  .000000000000D+00 -.111758708954D-07  .120000000000D+02
     .600000000000D+01  .400000000000D+01
14 08 11  2  2  0  0.0 -.199831556529D-03  .477484718431D-11  .000000000000D+00
     .460000000000D+02 -.207500000000D+02  .413481508879D-08  .593556939618D+00
    -.107847154140D-05  .435996567830D-02  .183656811714D-05  .515374916458D+04
     .720000000000D+04 -.372529029846D-07 -.914858256181D+00  .316649675369D-07
     .988966884589D+00  .360250000000D+03 -.215318312323D+01 -.817748348215D-08
    -.173935816553D-09  .100000000000D+01  .150400000000D+04  .000000000000D+00
     .240000000000D+01  .000000000000D+00 -.931322574615D-08  .460000000000D+02
     .600000000000D+01  .400000000000D+01
15 08 11  2  2  0  0.0 -.204009935260D-03 -.625277607469D-11  .000000000000D+00
     .450000000000D+02 -.292500000000D+02  .478162774542D-08  .137579487666D+01
    -.158324837685D-05  .109879206866D-02  .143237411976D-05  .515372265816D+04
     .720000000000D+04  .186264514923D-07 -.960867655903D+00 -.484287738800D-07
     .957183419606D+00  .347437500000D+03 -.105672679378D+01 -.839070664947D-08
    -.168221292806D-09  .100000000000D+01  .150400000000D+04  .000000000000D+00
     .240000000000D+01  .000000000000D+00 -.977888703346D-08  .450000000000D+02
     .600000000000D+01  .400000000000D+01
16 08 11  2  2  0  0.0  .978875905275D-04 -.238742359215D-11  .000000000000D+00
     .570000000000D+02 -.217187500000D+02  .431767984870D-08  .243908660310D+01
    -.101514160633D-05  .474194902927D-02  .832788646221D-05  .515369869804D+04
     .720000000000D+04  .186264514923D-07  .116563607232D+01  .102445483208D-06
     .966399057417D+00  .222875000000D+03 -.387193894214D+00 -.774139388870D-08
     .425374861428D-09  .100000000000D+01  .150400000000D+04  .000000000000D+00
     .240000000000D+01  .000000000000D+00 -.977888703346D-08  .570000000000D+02
     .600000000000D+01  .400000000000D+01
